Location Name,Address,City,Zip,Zip+4,County
LILY'S SMOKE SHOP #2,1205 WAYSIDE DR,HOUSTON,77011,2523,HARRIS
VAPE PROS,4616 CANAL ST STE B,HOUSTON,77011,2010,HARRIS
SMOKE TIME,13607 VETERANS MEMORIAL DR,HOUSTON,77014,1001,HARRIS
VAPES EMPIRE,14451 T C JESTER BLVD STE B,HOUSTON,77014,1319,HARRIS
EAST SIDE SMOKE,14225 EAST FWY STE B,HOUSTON,77015,5921,HARRIS
HOLY SMOKES #6,13374 WOODFOREST BLVD,HOUSTON,77015,2826,HARRIS
"HOMIEZ SMOKE SHOP, LLC",12322 EAST FWY STE B2,HOUSTON,77015,5532,HARRIS
SMOKE CITY,12804 EAST FWY STE 400,HOUSTON,77015,5708,HARRIS
SMOKE N VAPE,12620 WOODFOREST BLVD STE 450,HOUSTON,77015,3660,HARRIS
UVALDE SMOKE + VAPE,606 UVALDE RD,HOUSTON,77015,3721,HARRIS
"VAPES R US, LLC",826 BARBARA MAE ST STE G2,HOUSTON,77015,4839,HARRIS
"VAPES R US, LLC",12753 EAST FWY,HOUSTON,77015,5605,HARRIS
BLAZIN SMOKE,9440 SHADY DR STE B,HOUSTON,77016,4757,HARRIS
SLIM'S SMOKE SHOP,7103 LANGLEY RD,HOUSTON,77016,3325,HARRIS
SMOKE & CELL STOP,5915 MOHAWK ST STE A1,HOUSTON,77016,1860,HARRIS
"A TO Z SMOKES II, INC",8359 WINKLER DR,HOUSTON,77017,4509,HARRIS
PLAYAZ SMOKE SHOP,1408 AHRENS ST,HOUSTON,77017,5502,HARRIS
SMOKE FOR LESS LLC,8452 GULF FWY STE E,HOUSTON,77017,5093,HARRIS
THE VAPE GUYS,2210 ALLEN GENOA RD STE E,HOUSTON,77017,6847,HARRIS
INDEPENDENCE HEIGHTS CBD-HEMP-VAPOR SHOP LLC,4630 YALE ST,HOUSTON,77018,3359,HARRIS
CRAZY HEAD VAPES,706 W GRAY ST,HOUSTON,77019,4325,HARRIS
EAST SIDE SMOKE #2,663 ROUSE ST,HOUSTON,77020,5102,HARRIS
VAPE BASE,6705 LYONS AVE STE B,HOUSTON,77020,5132,HARRIS
AA SMOKE SHOP,4529 OLD SPANISH TRL STE B,HOUSTON,77021,1652,HARRIS
DS SMOKE & VAPOR,3929 OLD SPANISH TRL UNIT 90,HOUSTON,77021,1463,HARRIS
JUICIN & VAPING,6065 SCOTT ST,HOUSTON,77021,2663,HARRIS
SMOKE BOX SMOKE SHOP,4816 MARTIN LUTHER KING BLVD,HOUSTON,77021,2930,HARRIS
SMOKERS PLANET,5090 GRIGGS RD # 105,HOUSTON,77021,3210,HARRIS
VAPES & VIBES,3934 OLD SPANISH TRL STE B,HOUSTON,77021,1462,HARRIS
HOUSTON 420 SMOKE SHOP,4121 NORTH FWY,HOUSTON,77022,4205,HARRIS
"PUFF BOX, SMOKE SHOP",319 TIDWELL RD UNIT D1,HOUSTON,77022,2058,HARRIS
"TABOO SMOKE EMPORIUM, LLC",641 E CROSSTIMBERS ST,HOUSTON,77022,3723,HARRIS
365 SMOKE AND VAPE #6,2120 S WAYSIDE DR STE J,HOUSTON,77023,3900,HARRIS
FLY SMOKE SHOP 2,1602 CULLEN BLVD,HOUSTON,77023,3046,HARRIS
THE NONNA SMOKE & HYDRO,2901 TELEPHONE RD,HOUSTON,77023,5310,HARRIS
VAPE TOWN,5819 GULF FWY STE 400,HOUSTON,77023,5354,HARRIS
"337 SMOKE AND VAPE SHOP, LLC",10505 TOWN AND COUNTRY WAY STE 19853,HOUSTON,77024,2214,HARRIS
HIGH END SMOKE SHOP,7925 KATY FWY STE K,HOUSTON,77024,1957,HARRIS
HIGH ROLLER VAPE & SMOKE,5225 LOCKWOOD DR,HOUSTON,77026,1912,HARRIS
JENSEN SMOKE SHOP,1914 JENSEN DR,HOUSTON,77026,7435,HARRIS
KELLEY SMOKE & SLURP,4003 KELLEY ST STE E,HOUSTON,77026,1586,HARRIS
VAPE BAZAAR,4001 RICHMOND AVE STE E,HOUSTON,77027,6850,HARRIS
VAPE TIME #4,3161 WEST LOOP S STE B,HOUSTON,77027,6106,HARRIS
VC SMOKE AND VAPE SHOP,11929 EAST FWY STE C,HOUSTON,77029,2026,HARRIS
SUGARLAND SMOKE SHOP,11422 SOUTHWEST FWY STE 700,HOUSTON,77031,3624,HARRIS
TEXAS SMOKE SHOP,5627 ALDINE BENDER RD STE 3,HOUSTON,77032,4534,HARRIS
SHAWT'S SMOKE SHOP,6027 BELMARK ST,HOUSTON,77033,1217,HARRIS
ASTRO VAPE-SMOKE SHOP,12260 GULF FWY STE A3,HOUSTON,77034,4437,HARRIS
D/B/A TEXAN SMOKE SHOP 3,11211 ALMEDA GENOA RD STE A-100,HOUSTON,77034,3689,HARRIS
MILE HIGH SMOKE AND VAPE,10008 GULF FWY STE B,HOUSTON,77034,1056,HARRIS
SMOKE DROP,11400 GULF FWY STE E,HOUSTON,77034,3549,HARRIS
SMOKE STATION 45,1005 EDGEBROOK DR STE 1005C,HOUSTON,77034,1868,HARRIS
THE VAPE HUB,364 FM 1959 RD STE B,HOUSTON,77034,5414,HARRIS
VAPE TOWN,91 E EDGEBROOK DR,HOUSTON,77034,1408,HARRIS
VITRUM SMOKE,11550 GULF FWY STE C-1,HOUSTON,77034,3514,HARRIS
ASHLEY SMOKE SHOP,11729 AIRLINE DR,HOUSTON,77037,1001,HARRIS
WIRELESS SMOKE LLC,10998 NORTH FWY STE Q,HOUSTON,77037,1134,HARRIS
NEFERTITI SMOKE SHOP,1439 W MOUNT HOUSTON RD,HOUSTON,77038,3805,HARRIS
TY' SMOKE AND MORE,1736 W MOUNT HOUSTON RD,HOUSTON,77038,3812,HARRIS
TEXAN SMOKE SHOP,3308 ALDINE MAIL ROUTE RD STE C,HOUSTON,77039,4659,HARRIS
VAPE LAND & SMOKE LAND,3705 ALDINE MAIL ROUTE RD STE A,HOUSTON,77039,4656,HARRIS
GREEN SMOKE VAPE AND TOBACCO,14121 NORTHWEST FWY STE F,HOUSTON,77040,5064,HARRIS
TEXAS AK SMOKE LLC,7404 FAIRBANKS N HOUSTON RD,HOUSTON,77040,2502,HARRIS
CLOUD HOUSE SMOKE SHOP LLC,2620 W SAM HOUSTON PKWY S,HOUSTON,77042,3612,HARRIS
TOP CHOICE SMOKE SHOP 4,1621 UPLAND DR STE B,HOUSTON,77043,3702,HARRIS
365 SMOKE SHOP,3655 W OREM DR STE B,HOUSTON,77045,4425,HARRIS
SHIVAY KIRBY VAPE LP,12703 KIRBY DR,HOUSTON,77047,2621,HARRIS
SMOKE & ROCK,14519 CULLEN BLVD,HOUSTON,77047,5715,HARRIS
AK SMOKE LLC,4720 ALMEDA GENOA RD STE 113,HOUSTON,77048,4662,HARRIS
AB SMOKE AND VAPES,14672 WALLISVILLE RD,HOUSTON,77049,4436,HARRIS
SMOKE GALLERY,5805 E SAM HOUSTON PKWY N,HOUSTON,77049,2504,HARRIS
SMOKE & VAPE POT,5417 ANDERSON RD STE D,HOUSTON,77053,2154,HARRIS
HOUSTON SMOKE SHOP LLC,8403 ALMEDA RD STE C,HOUSTON,77054,7104,HARRIS
ROCK & SMOKE,11320 SPACE CENTER BLVD STE 100A,HOUSTON,77059,3652,HARRIS
CANDY PAINT EXOTIC SMOKE SHOP,12726 NORTH FWY STE D,HOUSTON,77060,1320,HARRIS
IMPERIAL SMOKE,16272 IMPERIAL VALLEY DR STE D,HOUSTON,77060,3566,HARRIS
SMOKE OUT,732 GREENS RD,HOUSTON,77060,1402,HARRIS
LILY'S SMOKE SHOP,7614 PECAN VILLAS DR STE C,HOUSTON,77061,1675,HARRIS
PHONE & SMOKE SHOP +,6802 TELEPHONE RD,HOUSTON,77061,2821,HARRIS
SKY HIGH SMOKE & DAIQUIRIS,8602 BROADWAY ST STE A,HOUSTON,77061,2346,HARRIS
ALL STAR TOBACCO AND VAPE,1131 CLEAR LAKE CITY BLVD,HOUSTON,77062,8102,HARRIS
SMOKE N MORE,907 EL DORADO BLVD STE G,HOUSTON,77062,4044,HARRIS
VIPER VAPES,1235 CLEAR LAKE CITY BLVD STE D,HOUSTON,77062,8125,HARRIS
A2 SMOKE SHOP,12795 WINDFERN RD,HOUSTON,77064,3009,HARRIS
EXCALIBUR SMOKE SHOP,8245 MILLS RD STE A,HOUSTON,77064,1301,HARRIS
GO VAPE YOURSELF,17350 STATE HIGHWAY 249 STE 220,HOUSTON,77064,1132,HARRIS
SMOKE THERAPY,9211 WEST RD STE 141,HOUSTON,77064,8634,HARRIS
SMOKE ZONE #2,11010 PERRY RD STE A,HOUSTON,77064,4603,HARRIS
VAPE TIME #2,9191 WEST RD STE F,HOUSTON,77064,8658,HARRIS
290 SMOKE SHOP,17504 NORTHWEST FWY STE 700,JERSEY VILLAGE,77065,5613,HARRIS
HOLY SMOKES,12123 WEST RD STE B,JERSEY VILLAGE,77065,5555,HARRIS
QUALITY SMOKES LLC,10521 JONES RD STE 2-C,HOUSTON,77065,4325,HARRIS
TWISTED SMOKE SHOP,8805 JONES RD,JERSEY VILLAGE,77065,5316,HARRIS
VAPE N MORE JONES,9587 JONES RD UNIT 122,HOUSTON,77065,4800,HARRIS
WHEEZY'S SMOKE SHOP LLC,650 W RANKIN RD,HOUSTON,77067,1614,HARRIS
EAGLE SMOKE SHOP & TOBACCO,4407 CYPRESS CREEK PKWY STE B,HOUSTON,77068,3461,HARRIS
SMOKE MOUNTAIN,14715 T C JESTER BLVD STE 800,HOUSTON,77068,2147,HARRIS
BC SMOKE SHOP,10950 CYPRESS CREEK PKWY STE E,HOUSTON,77070,6342,HARRIS
DR SMOKE,10978 GRANT RD STE F,HOUSTON,77070,4490,HARRIS
HAPPY DAZE SMOKE SHOP,9709 MILLS RD,HOUSTON,77070,5022,HARRIS
JJ SMOKE LLC,10801 SPRING CYPRESS RD STE 11,HOUSTON,77070,1722,HARRIS
LOL EXOTIC VAPE AND TOBACCO,11663 JONES RD STE B,HOUSTON,77070,5922,HARRIS
MANGO ISLAND SMOKE SHOP,9514 GRANT RD STE B,HOUSTON,77070,4239,HARRIS
PAPA SMOKES VAPE LLC,13521 PERRY RD STE 200,HOUSTON,77070,4246,HARRIS
SMO-KING VAPE AND SMOKE SHOP,12722 JONES RD STE 200,HOUSTON,77070,2977,HARRIS
SMOKE -N- CHILL,10541 CYPRESS CREEK PKWY # 270,HOUSTON,77070,6337,HARRIS
SMOKE SHOP STATION LLC,13339 JONES RD,HOUSTON,77070,3915,HARRIS
SMOKE ZONE PARADISE INC,13227 JONES RD,HOUSTON,77070,4439,HARRIS
VAPE PLUS CBD,12218 JONES RD STE I,HOUSTON,77070,5268,HARRIS
XPRESS SMOKE SHOP,9581 FM 1960 RD,HOUSTON,77070,6109,HARRIS
SMOKE AND MORE #2,12306 BEECHNUT ST STE B,HOUSTON,77072,3945,HARRIS
SMOKE DEPOT #2,1201 E AIRTEX DR,HOUSTON,77073,6333,HARRIS
504 VAPE & SMOKE SHOP,9715 TELEPHONE RD STE 105,HOUSTON,77075,2056,HARRIS
ELDRIDGE PKWY SMOKE & VAPE,1275 ELDRIDGE PKWY # 1260,HOUSTON,77077,2189,HARRIS
JACK SMOKE AND VAPE 2,1900 S KIRKWOOD RD STE 1826,HOUSTON,77077,6264,HARRIS
SMOKE & SLURP,12570 BRIAR FOREST DR STE C,HOUSTON,77077,2930,HARRIS
SMOKE VALLEY,2251 S TEXAS HWY 6,HOUSTON,77077,,HARRIS
TOP CHOICE SMOKE SHOP 2,1809 ELDRIDGE PKWY,HOUSTON,77077,2549,HARRIS
TOP CHOICE SMOKE SHOP 3,1460 ELDRIDGE PKWY STE 120,HOUSTON,77077,2121,HARRIS
VAPE AND STUFF,12569 WHITTINGTON DR,HOUSTON,77077,4849,HARRIS
BLAZIN SMOKE,2340 BLALOCK RD STE B,HOUSTON,77080,5464,HARRIS
SMOKE N PIPES # 2,1900 BLALOCK RD STE G,HOUSTON,77080,5444,HARRIS
SMOKE N PIPES #2,1900 BLALOCK RD STE G,HOUSTON,77080,5444,HARRIS
VAPE BAZAAR,1945 GESSNER RD,HOUSTON,77080,6320,HARRIS
VAPE XPRESS,1427 GESSNER RD STE 3,HOUSTON,77080,7578,HARRIS
EXPRESS SMOKE N VAPE LLC,6001 BISSONNET ST STE D,HOUSTON,77081,6966,HARRIS
SMOKE HUB,2681 HIGHWAY 6 S,HOUSTON,77082,1703,HARRIS
AURA SMOKE,13548 BEECHNUT ST STE 400,HOUSTON,77083,6605,HARRIS
BURN SMOKE SHOP OUTLIT,6732 HIGHWAY 6 S STE A,HOUSTON,77083,1528,HARRIS
HWY 6 SMOKE SHOP,6810 HIGHWAY 6 S,HOUSTON,77083,3492,HARRIS
RAW SMOKE SHOP LLC,7339 SYNOTT RD,HOUSTON,77083,4823,HARRIS
SMOKE N NIGHT,7730 HIGHWAY 6 S,HOUSTON,77083,3319,HARRIS
VAPEALICIOUS SMOKE SHOP & VAPE BAR,14485 BELLAIRE BLVD UNIT D,HOUSTON,77083,7521,HARRIS
VAPES & VIBES SMOKE SHOP,8603 HIGHWAY 6 S UNIT 2,HOUSTON,77083,6494,FORT BEND
BAMMEL SMOKE & VAPE,10911 BAMMEL NORTH HOUSTON RD STE E,HOUSTON,77086,1434,HARRIS
KHAI SMOKE LLC,13757 STATE HIGHWAY 249,HOUSTON,77086,2705,HARRIS
QUEEN SMOKE SHOP,9815 BAMMEL NORTH HOUSTON RD STE G,HOUSTON,77086,2988,HARRIS
SMOKE & DAIQUIRI TO GO,9523 ANTOINE DR,HOUSTON,77086,3948,HARRIS
SMOKEWOOD SMOKE SHOP,14929 STATE HIGHWAY 249 STE C,HOUSTON,77086,1627,HARRIS
K SMOKE,7004 WOODRIDGE DR,HOUSTON,77087,2712,HARRIS
S&O SMOKE SHOP,5602 TELEPHONE RD STE 1/2,HOUSTON,77087,4418,HARRIS
HUSTLE -N- SMOKE,1385 W GULF BANK RD,HOUSTON,77088,3652,HARRIS
SKY HIGH SMOKE SHOP,8501 ANTOINE DR STE B,HOUSTON,77088,2507,HARRIS
SMOKE SUM'N,8650 N HOUSTON ROSSLYN RD STE B,HOUSTON,77088,6400,HARRIS
E GO SMOKE SHOP,10904 SCARSDALE BLVD STE 140,HOUSTON,77089,6034,HARRIS
SABO SMOKE & VAPE,10717 SAGETREE DR STE B,HOUSTON,77089,3339,HARRIS
SMOKE IN VEGAS,13331 KUYKENDAHL RD STE 126,HOUSTON,77090,6410,HARRIS
WAYUP SMOKE & VAPE,1701 FARM TO MARKET 1960 RD W STE F,HOUSTON,77090,3212,HARRIS
420 SMOKE SHOP LLC,477 W PARKER RD,HOUSTON,77091,3202,HARRIS
B2H SMOKE SHOP,5403 ANTOINE DR,HOUSTON,77091,4911,HARRIS
I45 SMOKE SHOP,511 W LITTLE YORK RD UNIT A2,HOUSTON,77091,2541,HARRIS
SLIM'S SMOKE SHOP 2,485 W PARKER RD,HOUSTON,77091,3202,HARRIS
SMOKE ALLEY,4620 DACOMA ST,HOUSTON,77092,8121,HARRIS
SMOKEY DOKE SMOKE SHOP,5784 BINGLE RD,HOUSTON,77092,2145,HARRIS
STAR SMOKE SHOP,6100B PINEMONT DR,HOUSTON,77092,3202,HARRIS
"59 EXPRESS SMOKE, INC.",3536 LAURA KOPPE RD STE B,HOUSTON,77093,7735,HARRIS
REAL SMOKE SPOT,4828 MOUNT HOUSTON RD,HOUSTON,77093,1633,HARRIS
"AVAIL VAPOR TEXAS, LLC",7014 HIGHWAY 6 N STE E,HOUSTON,77095,2894,HARRIS
HOLY SMOKES # 7,16902 TUCKERTON RD STE E,HOUSTON,77095,2365,HARRIS
NEW LIQUOR SMOKE & VAPE,16048 WEST RD,HOUSTON,77095,3869,HARRIS
SUPER VAPE,16506 FM 529 RD STE 115,HOUSTON,77095,1463,HARRIS
VICTORY LIQUOR & SMOKE,7350 JACKRABBIT RD,HOUSTON,77095,3518,HARRIS
CLOUD 89 SMOKE SHOP LLC,9415 GLENFIELD CT,HOUSTON,77096,3817,HARRIS
FONDREN SMOKE & CBD,10610 FONDREN RD STE 103,HOUSTON,77096,5422,HARRIS
HIGH LIFE SMOKE SHOP,12222 BISSONNET ST STE G,HOUSTON,77099,1439,HARRIS
SMOKE CHAMBER,10555 S WILCREST DR # B,HOUSTON,77099,2821,HARRIS
VAPE DOGS,10870 W BELLFORT AVE,HOUSTON,77099,4751,HARRIS
BIGHEAD CBD VAPE & SMOKE,422 S FRAZIER ST STE B,CONROE,77301,5007,MONTGOMERY
EASY CHECK CASHING & SMOKE,1108 S FRAZIER ST,CONROE,77301,4446,MONTGOMERY
FUNKOSH SMOKE AND VAPE,203 E DAVIS ST,CONROE,77301,3159,MONTGOMERY
MR SMOKES,1029 N LOOP 336 W,CONROE,77301,1153,MONTGOMERY
SMOKE COUNCIL,1403 N FRAZIER ST,CONROE,77301,1815,MONTGOMERY
SMOKE VILLA,715 W DAVIS ST STE A,CONROE,77301,2704,MONTGOMERY
VISIBLE VAPOR LLC,914 W DALLAS ST,CONROE,77301,2234,MONTGOMERY
SMOKE SPOT,18460 HIGHWAY 242 STE C,CONROE,77302,6268,MONTGOMERY
CRAZY HEAD VAPES & DAIQUIRIS,10440 FM 2432 RD STE B,CONROE,77303,2402,MONTGOMERY
CLOUDBLIZZ SMOKE AND VAPE,4569 CROCKETT MARTIN RD STE B,CONROE,77306,,MONTGOMERY
VAPE KING #1,14756 FM 1485 RD STE 106,CONROE,77306,8958,MONTGOMERY
SMOKE VILLA,14650 FM 2854 RD LOT A,MONTGOMERY,77316,4015,MONTGOMERY
HOLLYWOOD SMOKES,10912 FM 1097 RD W,WILLIS,77318,4912,MONTGOMERY
MOBILE VAPOR,400 BELCHER ST STE 1,CLEVELAND,77327,3654,LIBERTY
SMOKE ZONE,23216 HIGHWAY 321,CLEVELAND,77327,4781,LIBERTY
VAPE LOUNGE,23128 STATE HWY 321,CLEVELAND,77327,,LIBERTY
VAPE N MORE,1202 E HOUSTON ST,CLEVELAND,77327,4704,LIBERTY
VAPE ROOM CLEVELAND,222 N TRAVIS AVE,CLEVELAND,77327,4013,LIBERTY
RIVERSIDE SMOKE SHOP,12050 US HWY 59 STE 102,SPLENDORA,77328,1704,MONTGOMERY
VAPEX SMOKE SHOP LLC,29220 HUFFMAN CLEVELAND RD STE C,HUFFMAN,77336,3818,HARRIS
"ARCUS VAPORS, LLC (FRANCHISE 'VAPORIZIT')",24551 LOOP 494 STE 102,KINGWOOD,77339,1549,MONTGOMERY
HAMBLEN SMOKE SHOP,1115 HAMBLEN RD STE 1113,KINGWOOD,77339,4012,HARRIS
MR SMOKE,1310 NORTHPARK DR STE 300,KINGWOOD,77339,2739,MONTGOMERY
TEXAS SMOKE,1417 NORTHPARK DR,KINGWOOD,77339,1638,MONTGOMERY
VAPE BAZAAR,2714 W LAKE HOUSTON PKWY STE 155,HUMBLE,77339,5231,HARRIS
1960 SMOKE SHOP,5758 FM 1960 RD E,HUMBLE,77346,2730,HARRIS
ATASCAVAPES,7156 ATASCOCITA RD,HUMBLE,77346,5013,HARRIS
LIT UP SMOKE SHOP,4028 FM 1960 RD E STE B,HUMBLE,77346,4221,HARRIS
SMOKEY'S SMOKE SHOP,5311 FM 1960 RD E STE L,HUMBLE,77346,2533,HARRIS
CBD + VAPE,787 HONEA EGYPT RD,MAGNOLIA,77354,3865,MONTGOMERY
K & D VAPORS INC,6315 FM 1488 RD STE C,MAGNOLIA,77354,2526,MONTGOMERY
SMOKE VILLA,18535 FM 1488 RD STE 115,MAGNOLIA,77354,2702,MONTGOMERY
VAPE GALAXY,6011 FM 1488 RD STE B,MAGNOLIA,77354,2738,MONTGOMERY
WORLD SMOKE / VAPE SHOP,5403 FM 1488 RD STE 5,MAGNOLIA,77354,2524,MONTGOMERY
1774 SMOKE SHOP,37707 FM 1774 RD STE C,MAGNOLIA,77355,4293,MONTGOMERY
CRAZY HEAD VAPES,623 MAGNOLIA BLVD,MAGNOLIA,77355,8545,MONTGOMERY
PAPA SMOKE,37125 FM 1774 RD STE 101,MAGNOLIA,77355,3079,MONTGOMERY
105 SMOKE SHOP,18441 HIGHWAY 105 W STE C,MONTGOMERY,77356,2859,MONTGOMERY
BIG BEARS LIQUOR & SMOKE,15450 WALDEN RD STE A,MONTGOMERY,77356,7973,MONTGOMERY
LAKESIDE SMOKE,17099 WALDEN RD STE 130,MONTGOMERY,77356,3249,MONTGOMERY
WORLD PEACE SMOKE SHOP BENTWATER,17156 W FM 1097 RD STE 6,MONTGOMERY,77356,7471,MONTGOMERY
WORLD PEACE SMOKE SHOP CONROE,16283 HIGHWAY 105 W STE 3,MONTGOMERY,77356,5659,MONTGOMERY
SMOKER'S PARADISE 'N' NOVELTIES,19658 FM 1485 RD STE A,NEW CANEY,77357,7667,MONTGOMERY
249 CBD SMOKE SHOP,32350 STATE HIGHWAY 249 STE 90,PINEHURST,77362,3890,MONTGOMERY
VAPE TOWN PLUS SMOKE & CBD,32344 STATE HIGHWAY 249 # B,PINEHURST,77362,3892,MONTGOMERY
BAJA ISLAND SMOKE VAPE CBC,21013 OLD SORTERS RD STE C,PORTER,77365,7083,MONTGOMERY
SMOKE KING,21898 FM 1314 RD STE C,PORTER,77365,7061,MONTGOMERY
TEXAS SMOKE,23974 LOOP 494,PORTER,77365,5300,MONTGOMERY
VAPE LOUNGE,24141 HIGHWAY 59,PORTER,77365,6112,MONTGOMERY
VAPES +,23430 FM 1314 RD STE C,PORTER,77365,3710,MONTGOMERY
JACK SMOKE AND VAPE 3,19380 INTERSTATE 45 STE 120,SPRING,77373,5309,HARRIS
MOONLIGHT SMOKE SHOP 2,26835 CYPRESSWOOD DR,SPRING,77373,6596,HARRIS
PUFF PUFF SMOKE,22756 CYPRESSWOOD DR STE B,SPRING,77373,8097,HARRIS
PUFFZILLA SMOKE SHOP,810 LOUETTA RD STE 4,SPRING,77373,2693,HARRIS
VEGAS VAPE BAR,5645A TREASCHWIG RD,SPRING,77373,7162,HARRIS
BAHAMA MAMA CBD VAPE AND SMOKE,708 W MAIN ST,TOMBALL,77375,5540,HARRIS
BAHAMA MAMA VAPE CBD,24910 KUYKENDAHL RD STE B,TOMBALL,77375,3204,HARRIS
BAHAMA MAMA VAPE CBD WELLNESS,9116 N GRAND PKWY W,TOMBALL,77375,2335,HARRIS
G'S SMOKE SHOP,24211 KUYKENDAHL RD STE 140,TOMBALL,77375,5388,HARRIS
GLASS AND VAPE CO-249,28048 STATE HIGHWAY 249 STE M,TOMBALL,77375,6418,HARRIS
"HOMETOWN VAPORS, WELLNESS & MORE",28105 STATE HIGHWAY 249 STE 110,TOMBALL,77375,3340,HARRIS
"HOMETOWN VAPORS, WELLNESS & MORE 2",940 W MAIN ST,TOMBALL,77375,5528,HARRIS
THE TOBACCO AND VAPE SHOP,10800 SPRING CYPRESS RD UNIT 300A,TOMBALL,77375,8600,HARRIS
WORLD PEACE SMOKE SHOP TOMBALL,30006 STATE HIGHWAY 249,TOMBALL,77375,4345,HARRIS
ROLLING & CO. SMOKE CBD VAPE,14635 FM 2920 RD STE 103,TOMBALL,77377,3102,HARRIS
VAPOR TREND - SPRING,11407 SPRING CYPRESS RD STE 200,TOMBALL,77377,6501,HARRIS
CLOUD 9 SMOKE & VAPE SHOP,214 S DANVILLE ST STE B,WILLIS,77378,9042,MONTGOMERY
HIGH END SMOKE SHOP,603 W MONTGOMERY ST STE A,WILLIS,77378,8681,MONTGOMERY
HOLLYWOOD SMOKES,112 E STEWART ST,WILLIS,77378,8793,MONTGOMERY
BEYOND SMOKE & CBD,8610 LOUETTA RD STE G,SPRING,77379,6678,HARRIS
CALI SMOKE SHOP,17560 KUYKENDAHL RD,SPRING,77379,8307,HARRIS
CBD SMOKE SHOP,6135 FM 2920 RD STE 200,SPRING,77379,2616,HARRIS
CHAMPION SMOKE SHOP,18618 CHAMPION FOREST DR STE C,SPRING,77379,5325,HARRIS
GLASS CHANCE VAPE & SMOKE,9440 LOUETTA RD STE 8,SPRING,77379,6551,HARRIS
IN THE CLOUDS SMOKE VAPE & CBD,6224 SPRING CYPRESS RD STE 111,SPRING,77379,3417,HARRIS
SMOKE PUFF #1,18311 T C JESTER BLVD STE E,SPRING,77379,,HARRIS
SMOKE SHACK,7110 LOUETTA RD STE D,SPRING,77379,7445,HARRIS
SMOKER'S SPOT,8905 LOUETTA RD STE J,SPRING,77379,6904,HARRIS
VEGAS VAPE & SMOKE,19620 KUYKENDAHL RD STE 190,SPRING,77379,3457,HARRIS
WORLD PEACE SMOKE SHOP,5010 LOUETTA RD STE D,SPRING,77379,8149,HARRIS
ZIP'S VAPE & CBD LLC,21322 KUYKENDAHL RD STE D,SPRING,77379,2608,HARRIS
HIGH END SMOKE SHOP,1440 SAWDUST RD,THE WOODLANDS,77380,2917,MONTGOMERY
HIGH END SMOKE SHOP,25919 INTERSTATE 45 STE A2,SPRING,77380,3576,MONTGOMERY
HIGH END SMOKE SHOP,412 SAWDUST RD,SPRING,77380,2243,MONTGOMERY
SMOKEYS VAPE & CBD,525 SAWDUST RD STE 105,SPRING,77380,2386,MONTGOMERY
SPRING VAPOR,257 SAWDUST RD,SPRING,77380,2238,MONTGOMERY
VAPE COUNCIL,548 SAWDUST RD,SPRING,77380,2245,MONTGOMERY
VAPE SHOP,1736 SAWDUST RD STE 102,THE WOODLANDS,77380,2144,MONTGOMERY
RISE 2 VAPE,3600 FM 1488 RD STE 140,CONROE,77384,3817,MONTGOMERY
ROLLERS RETREAT SMOKE VAPE & CBD,2400 FM 1488 RD STE 500,CONROE,77384,4957,MONTGOMERY
SMOKER'S CORNER,515 FM 1488 RD STE C,CONROE,77384,3929,MONTGOMERY
BAJA ISLAND SMOKE VAPE CBD,8546 HIGHWAY 242 STE F,CONROE,77385,4362,MONTGOMERY
HIGH END SMOKE SHOP,1523 RAYFORD RD STE B,SPRING,77386,2671,MONTGOMERY
JAMAICAN ME CRAZY SMOKE AND VAPE,635 RAYFORD RD STE C,SPRING,77386,2797,MONTGOMERY
LEGENDS SMOKE & VAPE,2907 RAYFORD RD STE 103,SPRING,77386,4119,MONTGOMERY
SMOKE SCREENS,25602 INTERSTATE 45,SPRING,77386,1350,MONTGOMERY
SMOKE SHACK,25192 I 45 N,SPRING,77386,,MONTGOMERY
2920 SMOKE,4915 FM 2920 RD STE 145,SPRING,77388,3107,HARRIS
AVE VAPOR,137 CYPRESSWOOD DR,SPRING,77388,6034,HARRIS
BABA SMOKE SHOP,3410 FM 2920 RD STE 50,SPRING,77388,4246,HARRIS
CYPRESSWOOD SMOKE & VAPE,294 CYPRESSWOOD DR STE 100,SPRING,77388,6002,HARRIS
FOREVER VAPES #2,4711 LOUETTA RD STE 104,SPRING,77388,4352,HARRIS
GLASS CITY VAPE & SMOKE,5210 FM 2920 RD STE 500,SPRING,77388,3695,HARRIS
GOLDEN SMOKE AND VAPE,4660 LOUETTA RD STE 115,SPRING,77388,4560,HARRIS
HIGH ROLLER VAPE & SMOKE,230 CYPRESSWOOD DR STE F,SPRING,77388,6042,HARRIS
SMOKE & CELL 5,3910 LOUETTA RD STE E,SPRING,77388,4559,HARRIS
SMOKE ISLAND,2400 FM 2920 RD STE 130,SPRING,77388,3673,HARRIS
SMOKE STUDIO LLC,2150 FM 2920 RD STE E,SPRING,77388,3681,HARRIS
SPRING WELLNESS SMOKE & VAPE,5240 FM 2920 RD STE 300,SPRING,77388,3003,HARRIS
WILD SIDE SMOKE SHOP,4905 FM 2920 RD,SPRING,77388,3112,HARRIS
DRIP N VAPE,8633 W RAYFORD RD STE 700,SPRING,77389,5191,HARRIS
Z SMOKE SHOP,3703 SPRING STUEBNER RD STE D,SPRING,77389,4795,HARRIS
SMOKE HAVEN,14814 RALSTON RD STE 110,HUMBLE,77396,,HARRIS
SMOKE VILLA,10711 N SAM HOUSTON PKWY E STE A,HUMBLE,77396,2944,HARRIS
CANNAPHORIA CBD VAPE WELLNESS,5311 BELLAIRE BLVD STE B,BELLAIRE,77401,3962,HARRIS
ATMOS SMOKE,26440 FM 1093 RD STE 310,RICHMOND,77406,7200,FORT BEND
LIGHT IT UP SMOKE & VAPE,1531 FM 359 RD STE 200,RICHMOND,77406,2021,FORT BEND
ROLLING SMOKE SHOP,1410 E HIGHWAY 90A STE 390,RICHMOND,77406,5488,FORT BEND
SMOKE GUYS,4610 FM 723 RD STE E,RICHMOND,77406,5687,FORT BEND
SMOKE R US,23655 FM 1093 RD,RICHMOND,77406,7801,FORT BEND
VAPE N MORE,924 FM 359 RD,RICHMOND,77406,2010,FORT BEND
PINEAPPLE XPRESS SMOKE SHOP RICHMOND,8463 FM 1464 RD STE A,RICHMOND,77407,1101,FORT BEND
URBAN SMOKE,16733 W AIRPORT BLVD STE 230,RICHMOND,77407,5075,FORT BEND
VAPE NATION,1422 S FRONT ST,BELLVILLE,77418,3307,AUSTIN
VAPE SHACK,207 E MAIN ST,BELLVILLE,77418,1525,AUSTIN
NEW EDGE SMOKE & VAPE NO.,14550 SPRING CYPRESS RD STE A,CYPRESS,77429,6665,HARRIS
RONY SMOKE SHOP,12630 HUFFMEISTER RD,CYPRESS,77429,3229,HARRIS
SAQ CITY SMOKE VAPE CBD,14006 CYPRESS NORTH HOUSTON RD STE 106,CYPRESS,77429,,HARRIS
SAQ CITY SMOKE VAPE CBD,14006 CYPRESS NORTH HOUSTON RD,CYPRESS,77429,,HARRIS
SMOKE REPUBLIC,11754 GRANT RD,CYPRESS,77429,2982,HARRIS
SMOKE SHACK,18002 HUFFMEISTER RD STE B,CYPRESS,77429,6404,HARRIS
SMOKE-TIME VAPE & SMOKE SHOP,16714 HUFFMEISTER RD STE A,CYPRESS,77429,1663,HARRIS
URBAN SMOKE,15210 SPRING CYPRESS RD STE D,CYPRESS,77429,6409,HARRIS
IMPERIAL VAPE SHOP,8102 FRY RD STE D,CYPRESS,77433,3202,HARRIS
IMPERIAL VAPOR CO. #3,27200 HIGHWAY 290 STE 100,CYPRESS,77433,5491,HARRIS
SMOKE CITY,16507 MUESCHKE RD STE 400,CYPRESS,77433,,HARRIS
SMOKE INN,7710 FRY RD STE 500,CYPRESS,77433,7335,HARRIS
THE VAPE SHOP #1,511 10TH ST,HEMPSTEAD,77445,4530,WALLER
K SMOKE,3939 FRY RD STE F,KATY,77449,6837,HARRIS
NEW EDGE SMOKE & VAPE,21411 CLAY RD STE C,KATY,77449,5857,HARRIS
SMOKE N VAPE,3616 N FRY RD STE 130,KATY,77449,8668,HARRIS
SMOKE SPOT HOUSTON LLC,3211 PEEK RD STE 800,KATY,77449,5891,HARRIS
JAY SMOKE,918 S FRY RD STE 400,KATY,77450,3074,HARRIS
STILL SMOKIN SMOKE SHOP & VAPE BAR,21930 PROVINCIAL BLVD,KATY,77450,1744,HARRIS
G'S VAPE SHOP VAPE L CDB L GLASS,6850 HIGHWAY 6 STE 500,MISSOURI CITY,77459,4374,FORT BEND
GS VAPE N SMOKE,6850 HIGHWAY 6 STE 500,MISSOURI CITY,77459,5473,FORT BEND
SMOKE & CELL 4,6302 HIGHWAY 6 STE L,MISSOURI CITY,77459,2232,FORT BEND
SMOKE SOURCE,9612 HIGHWAY 6 STE 110,MISSOURI CITY,77459,5154,FORT BEND
VAPE TOWN,4327 LAKESHORE FOREST DR,MISSOURI CITY,77459,4486,FORT BEND
M & W SMOKE SHOP,17529 HIGHWAY 36 STE 300,NEEDVILLE,77461,,FORT BEND
NEEDVILLE SMOKE SHOP,9009 MAIN ST,NEEDVILLE,77461,8424,FORT BEND
ALLSTAR SMOKE SHOP,6025 FM 762 RD STE C,RICHMOND,77469,3700,FORT BEND
G'S SMOKE SHOP,103 CRABB RIVER RD STE B,RICHMOND,77469,5901,FORT BEND
SMOKE VILLA,535 FM 2977 RD STE 106,ROSENBERG,77469,7512,FORT BEND
VAPE N MORE,110 CRABB RIVER RD UNIT 112,RICHMOND,77469,5891,FORT BEND
DISCOUNT TOBACCO AND SMOKE 2 INC,1509 HIGHWAY 36 N STE 110,ROSENBERG,77471,8746,FORT BEND
ELEVATE SMOKE & DAIQUIRIS,3317 AVENUE H,ROSENBERG,77471,2838,FORT BEND
GREEN ROSE SMOKE & VAPE,5715 READING RD STE D,ROSENBERG,77471,5702,FORT BEND
ROSENBERG SMOKE SHOP,907 1ST ST,ROSENBERG,77471,2429,FORT BEND
ROSENBERG SMOKE SHOP,907 1ST ST,ROSENBERG,77471,2429,FORT BEND
ROSENBERG SMOKE SHOP II,4227 AVENUE H STE AB,ROSENBERG,77471,2823,FORT BEND
SMOKE N LEGEND #2,26111 SOUTHWEST FWY,ROSENBERG,77471,5680,FORT BEND
VAPE ON,5140 AVENUE H,ROSENBERG,77471,2014,FORT BEND
HOLY SMOKES #5,2329 HIGHWAY 36 STE 200,SEALY,77474,7176,AUSTIN
SHIVAY SEALY VAPE LP,200 N MEYER ST STE 204,SEALY,77474,1826,AUSTIN
"VAPES AND CIGARS WORLD, LLC",117 MAIN ST UNIT A,SEALY,77474,2318,AUSTIN
5 STAR SMOKE SHOP,508 MURPHY RD,STAFFORD,77477,5449,FORT BEND
CLOUDZ RESALE & SMOKE SHOP,908 FM 2234 RD,STAFFORD,77477,6477,FORT BEND
SMOKE GUYS LLC,4647 S MAIN ST,STAFFORD,77477,4726,FORT BEND
VAPE ME LLC,13308 REDFISH LN STE 107,STAFFORD,77477,4428,FORT BEND
CIVIL VAPES,3123 HIGHWAY 6,SUGAR LAND,77478,4367,FORT BEND
FLAMES SMOKE SHOP,636 HIGHWAY 6 STE 800,SUGAR LAND,77478,5143,FORT BEND
META VAPE,4502 HIGHWAY 6 STE 206B,SUGAR LAND,77478,4488,FORT BEND
PINE APPLE XPRESS SUGAR LAND SMOKE SHOP & VAPE,4411 HIGHWAY 6,SUGAR LAND,77478,4476,FORT BEND
SMOKE BOUTIQUE,2575 ELDRIDGE RD STE B,SUGAR LAND,77478,2165,FORT BEND
IMPERIAL VAPOR CO,2645 TOWN CENTER BLVD N,SUGAR LAND,77479,2319,FORT BEND
SMOKER'S PLEASURE 3,5810 NEW TERRITORY BLVD,SUGAR LAND,77479,5948,FORT BEND
BEST ONE SMOKE LLC,35523 HIGHWAY 290 BYP STE C,WALLER,77484,2158,HARRIS
CINA SMOKE SHOP,40308 HIGHWAY 290 BUSINESS STE B,WALLER,77484,7966,WALLER
THE VAPE SHOP #1,31315 FM 2920 RD STE 14,WALLER,77484,8021,HARRIS
BEYOND SMOKE SHOP WEST COLUMBIA,656 W BRAZOS AVE,WEST COLUMBIA,77486,2616,BRAZORIA
WEST COLUMBIA SMOKE SHOP,436 S 17TH ST,WEST COLUMBIA,77486,3718,BRAZORIA
KATY PINE APPLE XPRESS SMOKE SHOP,1420 KATY FORT BEND RD # 180,KATY,77493,3178,HARRIS
SWEET CAROLINA VAPORS,1933 EAST AVE,KATY,77493,1646,HARRIS
NEW EDGE SMOKE AND VAPE 5,25031 WESTHEIMER PKWY UNIT 350,KATY,77494,7317,FORT BEND
SMOKE & VAPE WORLD,25600 WESTHEIMER PKWY STE 440,KATY,77494,7293,FORT BEND
ACE OF SMOKE,14009 FM 1464 RD,SUGAR LAND,77498,9601,FORT BEND
BEYOND SMOKE SHOP SUGAR LAND,5022 HIGHWAY 90A STE J,SUGAR LAND,77498,2048,FORT BEND
DREAMZ SMOKE AND VAPE,10581 S HIGHWAY 6,SUGAR LAND,77498,4906,FORT BEND
IT'S 4:20,10140 S HIGHWAY 6,SUGAR LAND,77498,,FORT BEND
6-11 GROCERY & SMOKE,918 W SOUTHMORE AVE STE 175,PASADENA,77502,1020,HARRIS
CHILLEM SMOKE SHOP #3,509 SOUTHMORE AVE STE 300,PASADENA,77502,3276,HARRIS
MOONLIGHT SMOKE SHOP,1900 STRAWBERRY RD STE 170,PASADENA,77502,2640,HARRIS
PHONE & SMOKE SHOP +,2020 RICHEY ST,PASADENA,77502,3332,HARRIS
TX SMOKE N VAPE,1607 PASADENA BLVD,PASADENA,77502,2403,HARRIS
CANNA BLISS SMOKE SHOP,638 PRESTON AVE,PASADENA,77503,1221,HARRIS
THE VAPE GUYS,3212 PASADENA BLVD,PASADENA,77503,3106,HARRIS
SMOKE IT UP PASADENA,3515 SPENCER HWY STE B,PASADENA,77504,1174,HARRIS
HIGH FLY SMOKE SHOP,6418 SPENCER HWY,PASADENA,77505,1702,HARRIS
SMOKE & DRINK TOBACCO SHOP,6716 SPENCER HWY,PASADENA,77505,1759,HARRIS
VAPEALICIOUS SMOKE SHOP & VAPE BAR,6340 SPENCER HWY # 140,PASADENA,77505,1610,HARRIS
VAPE N MORE PASADENA,1100 PASADENA BLVD,PASADENA,77506,4766,HARRIS
AMERICAN SMOKER,2414 S GORDON ST,ALVIN,77511,4718,BRAZORIA
DISCOUNT TOBACCO & SMOKE,5200 N HIGHWAY 35 STE A,ALVIN,77511,1810,BRAZORIA
IZZY'S VAPORS ALVIN,1200 HIGHWAY 35 BYP N,ALVIN,77511,8230,BRAZORIA
"PEARLAND SMOKE AND VAPE, LLC",215 W COOMBS ST,ALVIN,77511,2826,BRAZORIA
REDRUM SMOKE & VAPE,1706 S GORDON ST,ALVIN,77511,4451,BRAZORIA
RETRO VAPE,406 VERHALEN RD UNIT E,ALVIN,77511,5340,BRAZORIA
"VAPOR SENSE, LLC",2672 S BYPASS 35,ALVIN,77511,4706,BRAZORIA
VAPOR TREND,1101 E HIGHWAY 6 STE G,ALVIN,77511,2879,BRAZORIA
WINNERS SMOKE & VAPE,19628 E HIGHWAY 6,ALVIN,77511,7491,GALVESTON
SMOKE IT UP ANGLETON,1712 N VELASCO ST STE B,ANGLETON,77515,3195,BRAZORIA
STILL SMOKIN SMOKE SHOP & VAPE BAR,1113 N VELASCO ST,ANGLETON,77515,3007,BRAZORIA
TIGER SMOKE AND VAPE,4247 FM 1764 RD STE 500,SANTA FE,77517,4436,GALVESTON
G SMOKE & MORE,433 GRAND AVE # 108,BACLIFF,77518,1464,GALVESTON
VAPE BASE,3505 HIGHWAY 146 STE 600,BACLIFF,77518,2096,GALVESTON
BAYTOWN SMOKE SHOP 2,4607 N HIGHWAY 146 STE D,BAYTOWN,77520,9001,HARRIS
ROLLING SMOKE,2908 N HIGHWAY 146 STE 110,BAYTOWN,77520,,HARRIS
SHRIMP'S SMOKE SHOP,4118 DECKER DR,BAYTOWN,77520,1642,HARRIS
BAYTOWN SMOKE SHOP,3620 GARTH RD,BAYTOWN,77521,3814,HARRIS
BOOMTOWN VAPOR LLC,3415 GARTH RD,BAYTOWN,77521,3851,HARRIS
CBD + VAPE,7710 GARTH RD STE 400,BAYTOWN,77521,8909,HARRIS
LIQUOR & SMOKE STOP,2829 N MAIN ST STE 135,BAYTOWN,77521,4103,HARRIS
MAX & ZACH'S VAPOR SHOP,4506 GARTH RD STE M,BAYTOWN,77521,2162,HARRIS
MAX AND ZACHS VAPOR EXPRESS #2,6918 GARTH RD,BAYTOWN,77521,9646,HARRIS
SMOKE CITY 3,5165 GARTH RD STE 500,BAYTOWN,77521,5551,HARRIS
UP TIME SMOKE SHOP #1,2850 W BAKER RD STE 300,BAYTOWN,77521,2421,HARRIS
LIGHT IT UP SMOKE AND VAPE 2,8018 N HIGHWAY 146 STE 3,BAYTOWN,77523,2206,CHAMBERS
MAX AND ZACHS VAPOR EXPRESS,9529 N HIGHWAY 146,MONT BELVIEU,77523,9600,CHAMBERS
UP TIME SMOKE SHOP #2,8003 FM 3180 RD STE 1,BAYTOWN,77523,9862,CHAMBERS
EAST SIDE SMOKE & VAPE SHOP,1226 SHELDON RD,CHANNELVIEW,77530,3528,HARRIS
SERAFINA CBD & VAPE,979 SHELDON RD,CHANNELVIEW,77530,3513,HARRIS
HARO VAPE SHOP LLC,725 W PLANTATION DR,CLUTE,77531,5222,BRAZORIA
365 SMOKE & VAPE #3,2123 US 90,CROSBY,77532,,HARRIS
MAX AND ZACH'S VAPOR SHOP 2,105 KENNINGS RD STE 3B,CROSBY,77532,5127,HARRIS
PUFFS BOUTIQUE & VAPOR SHOP,6103 FM 2100 RD,CROSBY,77532,5611,HARRIS
SMOKZILLA SMOKE AND VAPE,5418 FM 2100 RD STE B,CROSBY,77532,,HARRIS
SMOKE N SNACKS,310 MAIN ST,DAISETTA,77533,,LIBERTY
VAPE ROOM DAYTON,708 W HIGHWAY 90,DAYTON,77535,2565,LIBERTY
THE SMOKERS OUTLET,8001 SPENCER HWY,DEER PARK,77536,6516,HARRIS
VAPE & MORE,4134 CENTER ST,DEER PARK,77536,6112,HARRIS
VAPE ROOM DEER PARK,3717 CENTER ST STE B,DEER PARK,77536,6581,HARRIS
BAHAMA MAMA VAPE SMOKE & CBD,2211 FM 646 RD W STE 120,DICKINSON,77539,3235,GALVESTON
DOSKI'S,3411 GULF FWY,DICKINSON,77539,4118,GALVESTON
IZZY'S VAPORS,2106 FM 517 RD E,DICKINSON,77539,8659,GALVESTON
SMOKE N GIFT SHOP,203 9TH ST STE B,SAN LEON,77539,9692,GALVESTON
TIGER SMOKE AND VAPE #2,614 FM 517 RD W STE 618B,DICKINSON,77539,3904,GALVESTON
STILL SMOKING SMOKE SHOP & VAPE BAR,1401 N BRAZOSPORT BLVD STE C,FREEPORT,77541,3536,BRAZORIA
SMOKE & LOUNGE,110 WILLOW ST UNIT C,FRESNO,77545,9476,FORT BEND
SMOKE & SELL #2,12033 HIGHWAY 6 STE 500,FRESNO,77545,8903,FORT BEND
ZOOZOOS SMOKE SHOP,12131 HIGHWAY 6 STE 106,FRESNO,77545,8842,FORT BEND
45 SMOKE & VAPE INC,101 W EL DORADO BLVD STE A2,FRIENDSWOOD,77546,6518,HARRIS
AK SMOKE NOVELTY & MORE,5039 FM 2351 RD,FRIENDSWOOD,77546,2807,HARRIS
IMPERIAL SMOKE N VAPE,1542 SUNSET DR,FRIENDSWOOD,77546,4724,GALVESTON
MR SMOKES,2525 W BAY AREA BLVD STE D,FRIENDSWOOD,77546,2658,HARRIS
SMOKE DROP 3,1503 SUNMEADOW BLVD,FRIENDSWOOD,77546,5654,GALVESTON
SMOKE N MORE,149 N FRIENDSWOOD DR,FRIENDSWOOD,77546,3746,GALVESTON
"VAPE KING HOUSTON, LLC",3330 E FM 528 RD,FRIENDSWOOD,77546,5012,HARRIS
"VAPOR SENSE, LLC",3526 E FM 528 RD,FRIENDSWOOD,77546,5014,HARRIS
EZ SMOKE & NOVELTY,3005 BROADWAY ST STE J,GALVESTON,77550,4223,GALVESTON
ESSENTIALS SMOKE SHOP,2602 61ST ST,GALVESTON,77551,1844,GALVESTON
"ISLAND SPOT (DELI, VAPE & RENTALS)",1017 61ST ST,GALVESTON,77551,1007,GALVESTON
MAX AND ZACHS VAPOR SHOP - GALVESTON,6105 STEWART RD STE D,GALVESTON,77551,1884,GALVESTON
SMOKE HUT,2724 61ST ST STE 4,GALVESTON,77551,1800,GALVESTON
STILL SMOKIN SMOKE SHOP & VAPE BAR,4601 FORT CROCKETT BLVD,GALVESTON,77551,5962,GALVESTON
VAPE CITY AND CELLULAR,2115 61ST STE STE 101B,GALVESTON,77551,,GALVESTON
DREAM SMOKE & MORE,505 N MAIN ST STE A,HIGHLANDS,77562,2831,HARRIS
I SMOKE,8721 HIGHWAY 6,HITCHCOCK,77563,3113,GALVESTON
I SMOKE #2,3129 HIGHWAY 6,HITCHCOCK,77563,2622,GALVESTON
SMOKING JOE'S,7927 HIGHWAY 6,HITCHCOCK,77563,1747,GALVESTON
BOARDWALK VAPOR,609 BRADFORD AVE STE 103,KEMAH,77565,3086,GALVESTON
DOSKI'S,1415 HIGHWAY 146 STE A,KEMAH,77565,3400,GALVESTON
FIREHOUSE VAPORS LLC,2094 MARINA BAY DR,KEMAH,77565,2203,GALVESTON
GALLERY VAPE & GLASS,201 HIGHWAY 332 W STE 1100,LAKE JACKSON,77566,4019,BRAZORIA
GALLERY VAPE & OUTLET,113 OYSTER CREEK DR STE B,LAKE JACKSON,77566,4192,BRAZORIA
INNOVATED VAPORS,208 HIGHWAY 332 W STE B,LAKE JACKSON,77566,4013,BRAZORIA
SMOKE STUDIO,104 PLANTATION DR,LAKE JACKSON,77566,6129,BRAZORIA
VAPE ESCAPE,2308 10TH AVE,LA MARQUE,77568,6341,GALVESTON
G SMOKE N MORE 2,10951B W FAIRMONT PKWY,LA PORTE,77571,6009,HARRIS
SYLVAN VAPE & MORE,1131 S BROADWAY ST,LA PORTE,77571,5301,HARRIS
VAPE & MORE,9901 SPENCER HWY STE G,LA PORTE,77571,4069,HARRIS
"VAPOR SENSE, LLC",1309 W FAIRMONT PKWY STE B,LA PORTE,77571,6123,HARRIS
"BURNERS VAPE, SMOKE AND HERBS",3003 E LEAGUE CITY PKWY STE B,LEAGUE CITY,77573,4795,GALVESTON
"BUSTOS VAPORS, LLC",2047 W MAIN ST STE A5,LEAGUE CITY,77573,3564,GALVESTON
DRIP N VAPE,1355 E LEAGUE CITY PKWY,LEAGUE CITY,77573,7094,GALVESTON
EGRET SMOKERS LLC,345 S EGRET BAY BLVD STE B,LEAGUE CITY,77573,2636,GALVESTON
GALAXY SMOKE SHOP,3311 FM 518 RD E STE 400F,LEAGUE CITY,77573,9320,GALVESTON
HIGH END SMOKE SHOP,2700 MARINA BAY DR STE I,LEAGUE CITY,77573,2480,GALVESTON
SMOKE HUT,2925 FM 518 RD E,LEAGUE CITY,77573,9302,GALVESTON
SMOKERS PARADISE,345 S EGRET BAY BLVD STE B,LEAGUE CITY,77573,2636,GALVESTON
VAPE N CBD OF HOUSTON INC,6011 W MAIN ST STE B105,LEAGUE CITY,77573,7533,GALVESTON
"VAPOR SENSE, LLC",651 N EGRET BAY BLVD STE K,LEAGUE CITY,77573,2665,GALVESTON
SMOKE & VAPE HOUSE,1008 MAIN ST,LIBERTY,77575,3718,LIBERTY
SMOKE CITY LIBERTY,904 MAIN ST STE B,LIBERTY,77575,3704,LIBERTY
"VAPE, SMOKE & BAIT",17133 HIGHWAY 146 N,LIBERTY,77575,6964,LIBERTY
VAPOR 100,2007 HIGHWAY 146 BYP,LIBERTY,77575,9618,LIBERTY
MANVEL SMOKE SHOP,4626 COUNTY ROAD 94 STE 100,MANVEL,77578,,BRAZORIA
IMPERIAL SMOKE N VAPE #5,2002 N MAIN ST STE 107,PEARLAND,77581,3361,BRAZORIA
SMOKE N MORE,6071 BROADWAY ST,PEARLAND,77581,7827,BRAZORIA
SMOKE TOWN,3227 BROADWAY ST,PEARLAND,77581,4501,BRAZORIA
SMOKER'S GENIE,1816 PEARLAND PKWY # 120,PEARLAND,77581,5100,BRAZORIA
VAPOR SENSE LLC,8201 BROADWAY ST STE 103,PEARLAND,77581,8923,BRAZORIA
GALLERY VAPE & GLASS,13630 HIGHWAY 6 STE 500,ROSHARON,77583,2102,FORT BEND
HOTSPOT LIQUOR & VAPE,3244 MERIDIANA PKWY STE 800,ROSHARON,77583,3385,BRAZORIA
LIQUOR & SMOKE,10165 FM 521 RD STE A,ROSHARON,77583,5131,BRAZORIA
SMOKE & CELL 1,14634 HIGHWAY 6 STE D,ROSHARON,77583,2262,BRAZORIA
FOREVER VAPES,10228 BROADWAY ST STE 156,PEARLAND,77584,8089,BRAZORIA
4 CREW TEXAS VAPE,2020 REPSDORPH RD STE 121,SEABROOK,77586,6449,HARRIS
"SMOKE SESH, LLC.",2900 NASA PKWY STE 180,SEABROOK,77586,3254,HARRIS
SMOKE DROP,3602 S SHAVER ST,SOUTH HOUSTON,77587,5204,HARRIS
CBD + VAPE,2506 25TH AVE N STE 7,TEXAS CITY,77590,4666,GALVESTON
IMPERIAL SMOKE # 3,2028 9TH AVE N STE 300,TEXAS CITY,77590,5568,GALVESTON
SIP N' SMOKE,3317 PALMER HWY,TEXAS CITY,77590,6509,GALVESTON
STILL SMOKIN SMOKE SHOP & VAPE BAR,3001 PALMER HWY,TEXAS CITY,77590,6816,GALVESTON
HOLY SMOKES #2,5314 FM 1765 STE B,TEXAS CITY,77591,4256,GALVESTON
MAINLAND SMOKE,1505 N NATCHEZ DR,TEXAS CITY,77591,2300,GALVESTON
SMOKE & VAPE FACTORY,9300 EMMETT F LOWRY EXPY STE 112,TEXAS CITY,77591,2133,GALVESTON
BAHAMA MAMA CBD VAPE,125 W BAY AREA BLVD,WEBSTER,77598,4111,HARRIS
MR SMOKES,341 EL DORADO BLVD STE A,WEBSTER,77598,2206,HARRIS
SKY HIGH SMOKE & MORE,15210 HIGHWAY 3 STE 107,WEBSTER,77598,2108,HARRIS
SMOKE AND MORE,13914 GALVESTON RD STE 250,WEBSTER,77598,,HARRIS
UPTOWN VAPORS,528 W BAY AREA BLVD,WEBSTER,77598,4749,HARRIS
WORLD PEACE SMOKE SHOP (WEBSTER),15128 HIGHWAY 3,WEBSTER,77598,1821,HARRIS
VAPE N MORE CRYSTAL BEACH,1920 HIGHWAY 87,CRYSTAL BEACH,77650,,GALVESTON
VAPOR TOWN,2275 STATE HWY 87 STE 19B,CRYSTAL BEACH,77650,,GALVESTON
SMOKE N SNACKS,307 HIGHWAY 124,WINNIE,77665,6004,CHAMBERS
VAPE N MORE,1214 HIGHWAY 124,WINNIE,77665,9004,CHAMBERS
VAPOR TECH,1220 HIGHWAY 124,WINNIE,77665,9004,CHAMBERS
